[{"OBJECT_NAME":"GOSAT 2 (IBUKI 1)","OBJECT_ID":"2018-084B","EPOCH":"2026-03-09T20:32:04.212384","MEAN_MOTION":14.84242316,"ECCENTRICITY":0.0001478,"INCLINATION":97.8678,"RA_OF_ASC_NODE":181.6299,"ARG_OF_PERICENTER":93.8371,"MEAN_ANOMALY":266.3012,"EPHEMERIS_TYPE":0,"CLASSIFICATION_TYPE":"U","NORAD_CAT_ID":43672,"ELEMENT_SET_NO":999,"REV_AT_EPOCH":39882,"BSTAR":0.00032562653,"MEAN_MOTION_DOT":2.674e-5,"MEAN_MOTION_DDOT":0},{"OBJECT_NAME":"METEOR 2-6 DEB","OBJECT_ID":"1980-073E","EPOCH":"2026-02-17T15:24:23.427648","MEAN_MOTION":14.83756645,"ECCENTRICITY":0.00120075,"INCLINATION":81.1945,"RA_OF_ASC_NODE":22.6487,"ARG_OF_PERICENTER":25.7138,"MEAN_ANOMALY":334.4667,"EPHEMERIS_TYPE":0,"CLASSIFICATION_TYPE":"U","NORAD_CAT_ID":29199,"ELEMENT_SET_NO":999,"REV_AT_EPOCH":2875,"BSTAR":0.0043144461,"MEAN_MOTION_DOT":0.00035916,"MEAN_MOTION_DDOT":0}]
